[{"OBJECT_NAME":"IRIDIUM 142","OBJECT_ID":"2018-030H","EPOCH":"2026-03-09T19:54:27.398592","MEAN_MOTION":14.34217645,"ECCENTRICITY":0.000204,"INCLINATION":86.4006,"RA_OF_ASC_NODE":331.9079,"ARG_OF_PERICENTER":94.7375,"MEAN_ANOMALY":265.4053,"EPHEMERIS_TYPE":0,"CLASSIFICATION_TYPE":"U","NORAD_CAT_ID":43256,"ELEMENT_SET_NO":999,"REV_AT_EPOCH":41589,"BSTAR":-2.157633e-6,"MEAN_MOTION_DOT":1.4e-7,"MEAN_MOTION_DDOT":0},{"OBJECT_NAME":"NOAA 16 DEB","OBJECT_ID":"2000-055KM","EPOCH":"2026-03-09T04:59:16.249344","MEAN_MOTION":14.33447593,"ECCENTRICITY":0.00128429,"INCLINATION":98.7195,"RA_OF_ASC_NODE":165.1555,"ARG_OF_PERICENTER":176.6709,"MEAN_ANOMALY":183.4562,"EPHEMERIS_TYPE":0,"CLASSIFICATION_TYPE":"U","NORAD_CAT_ID":41408,"ELEMENT_SET_NO":999,"REV_AT_EPOCH":52091,"BSTAR":0.0020346982,"MEAN_MOTION_DOT":5.582e-5,"MEAN_MOTION_DDOT":0}]
